QIANFAN-1               
1 60379U 24140A   25268.99898140  .00000090  00000+0  12006-3 0  9997
2 60379  88.9769 307.3407 0019624  81.6166 278.7209 13.50973926 56852
QIANFAN-2               
1 60380U 24140B   25268.95359183  .00000106  00000+0  14477-3 0  9996
2 60380  88.9756 307.1953 0014431  58.3317 301.9240 13.50966125 56907
QIANFAN-3               
1 60381U 24140C   25268.96187714  .00000100  00000+0  13598-3 0  9994
2 60381  88.9750 307.3329 0015816  68.9708 291.3133 13.50966221 56810
QIANFAN-4               
1 60382U 24140D   25268.93725683  .00000081  00000+0  10726-3 0  9993
2 60382  88.9775 307.2136 0014726  60.5779 299.6840 13.50973282 56932
QIANFAN-5               
1 60383U 24140E   25268.91254126  .00000096  00000+0  12946-3 0  9993
2 60383  88.9748 307.3637 0017266  78.7432 281.5658 13.50969153 56792
QIANFAN-6               
1 60384U 24140F   25268.93315292  .00000094  00000+0  12626-3 0  9991
2 60384  88.9776 307.0870 0014975  65.7082 294.5631 13.50965175 56998
QIANFAN-7               
1 60385U 24140G   25268.94177683  .00000596  00000+0  23655-3 0  9994
2 60385  88.9778 302.8763 0012729 301.0996  58.8949 14.27558301 59293
QIANFAN-8               
1 60386U 24140H   25268.94133003  .00000082  00000+0  10781-3 0  9999
2 60386  88.9779 307.3223 0018461  66.7436 293.5657 13.50968964 56846
